STARLINK-32958          
1 63563U 25075R   26021.71684855  .00043714  00000+0  15906-2 0  9998
2 63563  43.0048 175.8977 0002766 275.6256  84.4281 15.27538803 44740
STARLINK-32928          
1 63564U 25075S   26021.70013693  .00033187  00000+0  12110-2 0  9991
2 63564  42.9992 175.7708 0001579 269.6537  90.4134 15.27555690 44752
STARLINK-32687          
1 63565U 25075T   26021.72582189  .00036036  00000+0  13123-2 0  9996
2 63565  43.0002 175.9383 0001338 285.7163  74.3541 15.27589284 44754
STARLINK-32950          
1 63566U 25075U   26021.69499296  .00048507  00000+0  17632-2 0  9994
2 63566  43.0012 175.6697 0001566 269.5851  90.4821 15.27532258 44746
STARLINK-32954          
1 63567U 25075V   26021.44628688  .00045176  00000+0  16423-2 0  9993
2 63567  42.9944 177.2729 0000786 203.3727 156.7089 15.27557578 44704
STARLINK-32940          
1 63568U 25075W   26021.71298240  .00059793  00000+0  21668-2 0  9998
2 63568  42.9998 175.8395 0001069 271.0447  89.0282 15.27550094 44746
STARLINK-32959          
1 63569U 25076A   26022.25501499  .00036543  00000+0  13305-2 0  9990
2 63569  42.9999 227.9115 0000774 258.6192 101.4573 15.27589684 44689
STARLINK-32956          
1 63570U 25076B   26022.26256309  .00037527  00000+0  13663-2 0  9990
2 63570  42.9982 227.1029 0003889 263.7778  96.2631 15.27575858 44680
STARLINK-33722          
1 63571U 25076C   26022.27718997  .00035408  00000+0  12904-2 0  9991
2 63571  43.0031 223.6922 0001927 266.1100  93.9531 15.27571418 44724
STARLINK-33739          
1 63572U 25076D   26022.24648638  .00042022  00000+0  15262-2 0  9993
2 63572  42.9998 224.3201 0000885 227.3190 132.7587 15.27617274 44727
STARLINK-33683          
1 63573U 25076E   26021.85289038  .00052051  00000+0  18876-2 0  9992
2 63573  42.9927 226.5224 0000627 203.1736 156.9087 15.27581052 44661
STARLINK-33732          
1 63575U 25076G   26021.90542225  .00036829  00000+0  13412-2 0  9996
2 63575  42.9987 226.0602 0001451 242.7872 117.2831 15.27580055 44670
STARLINK-33800          
1 63576U 25076H   26022.27205240  .00042156  00000+0  15329-2 0  9990
2 63576  43.0028 223.6480 0002318 257.9807 102.0785 15.27574280 44735
STARLINK-33632          
1 63577U 25076J   26022.24264031  .00024687  00000+0  90404-3 0  9998
2 63577  42.9961 224.2883 0001690 277.2576  82.8083 15.27564123 44724
STARLINK-33719          
1 63578U 25076K   26022.28105032  .00024826  00000+0  90925-3 0  9991
2 63578  43.0007 223.7197 0002272 263.6380  96.4213 15.27556912 44733
STARLINK-33755          
1 63579U 25076L   26022.28231304  .00038304  00000+0  13944-2 0  9995
2 63579  42.9959 223.6471 0001602 260.4699  99.5972 15.27577113 44738
