[{"OBJECT_NAME":"STARLINK-32958","OBJECT_ID":"2025-075R","EPOCH":"2026-01-21T17:12:15.714720","MEAN_MOTION":15.27538803,"ECCENTRICITY":0.00027662,"INCLINATION":43.0048,"RA_OF_ASC_NODE":175.8977,"ARG_OF_PERICENTER":275.6256,"MEAN_ANOMALY":84.4281,"EPHEMERIS_TYPE":0,"CLASSIFICATION_TYPE":"U","NORAD_CAT_ID":63563,"ELEMENT_SET_NO":999,"REV_AT_EPOCH":4474,"BSTAR":0.0015905595,"MEAN_MOTION_DOT":0.00043714,"MEAN_MOTION_DDOT":0},{"OBJECT_NAME":"STARLINK-32928","OBJECT_ID":"2025-075S","EPOCH":"2026-01-21T16:48:11.830752","MEAN_MOTION":15.2755569,"ECCENTRICITY":0.00015792,"INCLINATION":42.9992,"RA_OF_ASC_NODE":175.7708,"ARG_OF_PERICENTER":269.6537,"MEAN_ANOMALY":90.4134,"EPHEMERIS_TYPE":0,"CLASSIFICATION_TYPE":"U","NORAD_CAT_ID":63564,"ELEMENT_SET_NO":999,"REV_AT_EPOCH":4475,"BSTAR":0.0012109655,"MEAN_MOTION_DOT":0.00033187,"MEAN_MOTION_DDOT":0},{"OBJECT_NAME":"STARLINK-32687","OBJECT_ID":"2025-075T","EPOCH":"2026-01-21T17:25:11.011296","MEAN_MOTION":15.27589284,"ECCENTRICITY":0.00013382,"INCLINATION":43.0002,"RA_OF_ASC_NODE":175.9383,"ARG_OF_PERICENTER":285.7163,"MEAN_ANOMALY":74.3541,"EPHEMERIS_TYPE":0,"CLASSIFICATION_TYPE":"U","NORAD_CAT_ID":63565,"ELEMENT_SET_NO":999,"REV_AT_EPOCH":4475,"BSTAR":0.0013122853,"MEAN_MOTION_DOT":0.00036036,"MEAN_MOTION_DDOT":0},{"OBJECT_NAME":"STARLINK-32950","OBJECT_ID":"2025-075U","EPOCH":"2026-01-21T16:40:47.391744","MEAN_MOTION":15.27532258,"ECCENTRICITY":0.00015661,"INCLINATION":43.0012,"RA_OF_ASC_NODE":175.6697,"ARG_OF_PERICENTER":269.5851,"MEAN_ANOMALY":90.4821,"EPHEMERIS_TYPE":0,"CLASSIFICATION_TYPE":"U","NORAD_CAT_ID":63566,"ELEMENT_SET_NO":999,"REV_AT_EPOCH":4474,"BSTAR":0.0017632071,"MEAN_MOTION_DOT":0.00048507,"MEAN_MOTION_DDOT":0},{"OBJECT_NAME":"STARLINK-32954","OBJECT_ID":"2025-075V","EPOCH":"2026-01-21T10:42:39.186432","MEAN_MOTION":15.27557578,"ECCENTRICITY":7.867e-5,"INCLINATION":42.9944,"RA_OF_ASC_NODE":177.2729,"ARG_OF_PERICENTER":203.3727,"MEAN_ANOMALY":156.7089,"EPHEMERIS_TYPE":0,"CLASSIFICATION_TYPE":"U","NORAD_CAT_ID":63567,"ELEMENT_SET_NO":999,"REV_AT_EPOCH":4470,"BSTAR":0.0016422822,"MEAN_MOTION_DOT":0.00045176,"MEAN_MOTION_DDOT":0},{"OBJECT_NAME":"STARLINK-32940","OBJECT_ID":"2025-075W","EPOCH":"2026-01-21T17:06:41.679360","MEAN_MOTION":15.27550094,"ECCENTRICITY":0.00010692,"INCLINATION":42.9998,"RA_OF_ASC_NODE":175.8395,"ARG_OF_PERICENTER":271.0447,"MEAN_ANOMALY":89.0282,"EPHEMERIS_TYPE":0,"CLASSIFICATION_TYPE":"U","NORAD_CAT_ID":63568,"ELEMENT_SET_NO":999,"REV_AT_EPOCH":4474,"BSTAR":0.0021667808,"MEAN_MOTION_DOT":0.00059793,"MEAN_MOTION_DDOT":0},{"OBJECT_NAME":"STARLINK-32959","OBJECT_ID":"2025-076A","EPOCH":"2026-01-22T06:07:13.295136","MEAN_MOTION":15.27589684,"ECCENTRICITY":7.74e-5,"INCLINATION":42.9999,"RA_OF_ASC_NODE":227.9115,"ARG_OF_PERICENTER":258.6192,"MEAN_ANOMALY":101.4573,"EPHEMERIS_TYPE":0,"CLASSIFICATION_TYPE":"U","NORAD_CAT_ID":63569,"ELEMENT_SET_NO":999,"REV_AT_EPOCH":4468,"BSTAR":0.0013304971,"MEAN_MOTION_DOT":0.00036543,"MEAN_MOTION_DDOT":0},{"OBJECT_NAME":"STARLINK-32956","OBJECT_ID":"2025-076B","EPOCH":"2026-01-22T06:18:05.450976","MEAN_MOTION":15.27575858,"ECCENTRICITY":0.00038893,"INCLINATION":42.9982,"RA_OF_ASC_NODE":227.1029,"ARG_OF_PERICENTER":263.7778,"MEAN_ANOMALY":96.2631,"EPHEMERIS_TYPE":0,"CLASSIFICATION_TYPE":"U","NORAD_CAT_ID":63570,"ELEMENT_SET_NO":999,"REV_AT_EPOCH":4468,"BSTAR":0.0013662805,"MEAN_MOTION_DOT":0.00037527,"MEAN_MOTION_DDOT":0},{"OBJECT_NAME":"STARLINK-33722","OBJECT_ID":"2025-076C","EPOCH":"2026-01-22T06:39:09.213408","MEAN_MOTION":15.27571418,"ECCENTRICITY":0.00019273,"INCLINATION":43.0031,"RA_OF_ASC_NODE":223.6922,"ARG_OF_PERICENTER":266.11,"MEAN_ANOMALY":93.9531,"EPHEMERIS_TYPE":0,"CLASSIFICATION_TYPE":"U","NORAD_CAT_ID":63571,"ELEMENT_SET_NO":999,"REV_AT_EPOCH":4472,"BSTAR":0.0012903912,"MEAN_MOTION_DOT":0.00035408,"MEAN_MOTION_DDOT":0},{"OBJECT_NAME":"STARLINK-33739","OBJECT_ID":"2025-076D","EPOCH":"2026-01-22T05:54:56.423232","MEAN_MOTION":15.27617274,"ECCENTRICITY":8.858e-5,"INCLINATION":42.9998,"RA_OF_ASC_NODE":224.3201,"ARG_OF_PERICENTER":227.319,"MEAN_ANOMALY":132.7587,"EPHEMERIS_TYPE":0,"CLASSIFICATION_TYPE":"U","NORAD_CAT_ID":63572,"ELEMENT_SET_NO":999,"REV_AT_EPOCH":4472,"BSTAR":0.0015261506,"MEAN_MOTION_DOT":0.00042022,"MEAN_MOTION_DDOT":0},{"OBJECT_NAME":"STARLINK-33683","OBJECT_ID":"2025-076E","EPOCH":"2026-01-21T20:28:09.728832","MEAN_MOTION":15.27581052,"ECCENTRICITY":6.275e-5,"INCLINATION":42.9927,"RA_OF_ASC_NODE":226.5224,"ARG_OF_PERICENTER":203.1736,"MEAN_ANOMALY":156.9087,"EPHEMERIS_TYPE":0,"CLASSIFICATION_TYPE":"U","NORAD_CAT_ID":63573,"ELEMENT_SET_NO":999,"REV_AT_EPOCH":4466,"BSTAR":0.0018876397,"MEAN_MOTION_DOT":0.00052051,"MEAN_MOTION_DDOT":0},{"OBJECT_NAME":"STARLINK-33732","OBJECT_ID":"2025-076G","EPOCH":"2026-01-21T21:43:48.482400","MEAN_MOTION":15.27580055,"ECCENTRICITY":0.00014518,"INCLINATION":42.9987,"RA_OF_ASC_NODE":226.0602,"ARG_OF_PERICENTER":242.7872,"MEAN_ANOMALY":117.2831,"EPHEMERIS_TYPE":0,"CLASSIFICATION_TYPE":"U","NORAD_CAT_ID":63575,"ELEMENT_SET_NO":999,"REV_AT_EPOCH":4467,"BSTAR":0.0013411644,"MEAN_MOTION_DOT":0.00036829,"MEAN_MOTION_DDOT":0},{"OBJECT_NAME":"STARLINK-33800","OBJECT_ID":"2025-076H","EPOCH":"2026-01-22T06:31:45.327360","MEAN_MOTION":15.2757428,"ECCENTRICITY":0.0002318,"INCLINATION":43.0028,"RA_OF_ASC_NODE":223.648,"ARG_OF_PERICENTER":257.9807,"MEAN_ANOMALY":102.0785,"EPHEMERIS_TYPE":0,"CLASSIFICATION_TYPE":"U","NORAD_CAT_ID":63576,"ELEMENT_SET_NO":999,"REV_AT_EPOCH":4473,"BSTAR":0.0015329236,"MEAN_MOTION_DOT":0.00042156,"MEAN_MOTION_DDOT":0},{"OBJECT_NAME":"STARLINK-33632","OBJECT_ID":"2025-076J","EPOCH":"2026-01-22T05:49:24.122784","MEAN_MOTION":15.27564123,"ECCENTRICITY":0.00016906,"INCLINATION":42.9961,"RA_OF_ASC_NODE":224.2883,"ARG_OF_PERICENTER":277.2576,"MEAN_ANOMALY":82.8083,"EPHEMERIS_TYPE":0,"CLASSIFICATION_TYPE":"U","NORAD_CAT_ID":63577,"ELEMENT_SET_NO":999,"REV_AT_EPOCH":4472,"BSTAR":0.00090404434,"MEAN_MOTION_DOT":0.00024687,"MEAN_MOTION_DDOT":0},{"OBJECT_NAME":"STARLINK-33719","OBJECT_ID":"2025-076K","EPOCH":"2026-01-22T06:44:42.747648","MEAN_MOTION":15.27556912,"ECCENTRICITY":0.00022729,"INCLINATION":43.0007,"RA_OF_ASC_NODE":223.7197,"ARG_OF_PERICENTER":263.638,"MEAN_ANOMALY":96.4213,"EPHEMERIS_TYPE":0,"CLASSIFICATION_TYPE":"U","NORAD_CAT_ID":63578,"ELEMENT_SET_NO":999,"REV_AT_EPOCH":4473,"BSTAR":0.0009092524,"MEAN_MOTION_DOT":0.00024826,"MEAN_MOTION_DDOT":0},{"OBJECT_NAME":"STARLINK-33755","OBJECT_ID":"2025-076L","EPOCH":"2026-01-22T06:46:31.846656","MEAN_MOTION":15.27577113,"ECCENTRICITY":0.00016023,"INCLINATION":42.9959,"RA_OF_ASC_NODE":223.6471,"ARG_OF_PERICENTER":260.4699,"MEAN_ANOMALY":99.5972,"EPHEMERIS_TYPE":0,"CLASSIFICATION_TYPE":"U","NORAD_CAT_ID":63579,"ELEMENT_SET_NO":999,"REV_AT_EPOCH":4473,"BSTAR":0.0013943606,"MEAN_MOTION_DOT":0.00038304,"MEAN_MOTION_DDOT":0}]
